{
  "norad_id": 47787,
  "name": "STARLINK-2257",
  "history": [
    {
      "epoch": "2026-03-28T14:26:55.671072",
      "apogee_km": 476.04943870302486,
      "perigee_km": 474.43067104266447,
      "latitude_deg": -49.489923918453584,
      "longitude_deg": 96.49519008002244,
      "semi_major_axis_km": 6853.377054872844,
      "eccentricity": 0.0001181,
      "inclination_deg": 53.1592,
      "raan_deg": 157.4911,
      "arg_perigee_deg": 81.3761,
      "mean_anomaly_deg": 278.7374,
      "mean_motion_rev_day": 15.30191632
    }
  ]
}