{"fetched_at":"2026-03-29T16:36:15Z","count":15609,"tles":[{"name":"STARLINK-2257","line1":"1 47787U 21018A   26087.60203323  .00007347  00000+0  26000-3 0  9998","line2":"2 47787  53.1592 157.4911 0001181  81.3761 278.7374 15.30191632279585","category":"Starlink"}]}